[{"OBJECT_NAME":"SDA_1674","OBJECT_ID":"2025-230L","EPOCH":"2026-03-09T17:39:14.953536","MEAN_MOTION":13.85421025,"ECCENTRICITY":0.00045935,"INCLINATION":81.3001,"RA_OF_ASC_NODE":303.8213,"ARG_OF_PERICENTER":113.5479,"MEAN_ANOMALY":246.6161,"EPHEMERIS_TYPE":0,"CLASSIFICATION_TYPE":"U","NORAD_CAT_ID":65984,"ELEMENT_SET_NO":999,"REV_AT_EPOCH":2005,"BSTAR":0.00028416236,"MEAN_MOTION_DOT":3.35e-6,"MEAN_MOTION_DDOT":0},{"OBJECT_NAME":"CZ-2D DEB","OBJECT_ID":"2008-056D","EPOCH":"2026-03-09T01:27:53.547552","MEAN_MOTION":14.0998999,"ECCENTRICITY":0.01635809,"INCLINATION":99.0104,"RA_OF_ASC_NODE":109.5673,"ARG_OF_PERICENTER":164.5191,"MEAN_ANOMALY":196.1069,"EPHEMERIS_TYPE":0,"CLASSIFICATION_TYPE":"U","NORAD_CAT_ID":35274,"ELEMENT_SET_NO":999,"REV_AT_EPOCH":88349,"BSTAR":0.00040335815,"MEAN_MOTION_DOT":7.61e-6,"MEAN_MOTION_DDOT":0}]
